1 25539U 88109F   20126.09992023 -.00000174  00000-0  51417-3 0  9999
2 25539   7.2334 325.9127 6919393 253.4499  25.1317  2.64281493200684
1 25540U 88109G   20127.08087306  .00000972  00000-0  10685-2 0  9996
2 25540   6.8313  97.4306 6786811 356.9936   0.2853  2.86645887208794
1 25541U 88109H   20126.27449692 -.00000011 +00000-0 +75697-3 0  9997
2 25541 007.2288 002.4611 7101043 189.4978 141.0334 02.36514562184184
1 25542U 88109J   20126.26136345 -.00000052 +00000-0 +13866-3 0  9990
2 25542 007.2187 010.3100 7163516 173.1232 208.4282 02.31738544186488
1 25543U 88109K   20126.85435799  .00000055  00000-0  35879-3 0  9991
2 25543   7.2217  37.6185 7177804 118.0122 329.9974  2.29514339185251
1 25544U 98067A   20127.37136911  .00000843  00000-0  23178-4 0  9993
2 25544  51.6447 195.4314 0001025 241.6743 215.3876 15.49351388225537
1 25546U 98068A   20126.82468958 -.00000008 +00000-0 +00000-0 0  9993
2 25546 006.2515 062.1561 0008091 322.9221 039.2060 00.99035776078420
1 25548U 98068C   20126.43385641 -.00000068  00000-0  00000+0 0  9994
2 25548  19.4984 123.6309 6991863 146.5060 289.2700  2.15163450168672
1 25558U 98070A   20127.20340872 -.00000066  00000-0  00000+0 0  9999
2 25558   5.3476  68.9522 0008441 339.6173 170.6318  0.98719829 78423
1 25560U 98071A   20126.73582913  .00000065  00000-0  14598-4 0  9994
2 25560  69.8970 131.1268 0006123  23.6237 336.5199 14.93863111162862
